STARLINK-37020          
1 68144U 26049C   26087.90725482  .00118322  00000+0  60907-3 0  9995
2 68144  97.2844 108.1031 0000915 118.5602 241.5759 15.80853931  2447
STARLINK-36244          
1 68145U 26049D   26087.91668981 -.00091085  00000+0 -61583-3 0  9996
2 68145  97.2847 108.1032 0001390  94.5254 298.0973 15.75208398  3728
STARLINK-36980          
1 68146U 26049E   26087.90650488  .00086143  00000+0  44563-3 0  9995
2 68146  97.2845 108.1040 0001065 102.8580 257.2808 15.80836291  2447
STARLINK-37055          
1 68147U 26049F   26087.90800597  .00070716  00000+0  36665-3 0  9997
2 68147  97.2845 108.1013 0000938  94.9179 265.2196 15.80833937  2444
STARLINK-36981          
1 68148U 26049G   26087.90500115  .00136892  00000+0  70266-3 0  9994
2 68148  97.2845 108.1056 0001456 104.0048 256.1382 15.80865372  2440
STARLINK-36992          
1 68149U 26049H   26087.90425020  .00140495  00000+0  72127-3 0  9998
2 68149  97.2846 108.1067 0001245 109.0952 251.0452 15.80852398  2445
STARLINK-37060          
1 68150U 26049J   26087.91668981  .00038754  00000+0  20238-3 0  9996
2 68150  97.2846 108.1221 0001627  71.7383   3.4251 15.80792461  3717
STARLINK-37073          
1 68151U 26049K   26087.91668981  .00057126  00000+0  29738-3 0  9995
2 68151  97.2846 108.1241 0001511  63.2952  16.1333 15.80789311  3712
STARLINK-37049          
1 68152U 26049L   26087.91668981  .00097180  00000+0  50331-3 0  9993
2 68152  97.2847 108.1262 0001379  86.8092 356.8900 15.80778526  3715
STARLINK-37072          
1 68153U 26049M   26087.91668981  .00088757  00000+0  46014-3 0  9997
2 68153  97.2846 108.1283 0001234  95.2789 352.7045 15.80781106  3718
STARLINK-36241          
1 68154U 26049N   26087.91668981 -.00053755  00000+0 -36176-3 0  9998
2 68154  97.2848 108.1128 0001294 100.3136 314.3039 15.75192238  3723
STARLINK-37048          
1 68155U 26049P   26087.91668981  .00110054  00000+0  56936-3 0  9999
2 68155  97.2846 108.1353 0001255  73.5460  31.5389 15.80766607  3718
