CCSDS_OMM_VERS = 2.0
CREATION_DATE  = 
ORIGINATOR     = 

OBJECT_NAME    = STARLINK-37020
OBJECT_ID      = 2026-049C
CENTER_NAME    = EARTH
REF_FRAME      = TEME
TIME_SYSTEM    = UTC
MEAN_ELEMENT_THEORY = SGP/SGP4

EPOCH          = 2026-03-28T21:46:26.816448
MEAN_MOTION    = 15.80853931
ECCENTRICITY   = .00009155
INCLINATION    = 97.2844
RA_OF_ASC_NODE = 108.1031
ARG_OF_PERICENTER = 118.5602
MEAN_ANOMALY   = 241.5759

EPHEMERIS_TYPE = 0
CLASSIFICATION_TYPE = U
NORAD_CAT_ID   = 68144
ELEMENT_SET_NO = 999
REV_AT_EPOCH   = 244
BSTAR          = .60907304E-3
MEAN_MOTION_DOT = .118322E-2
MEAN_MOTION_DDOT = 0

CCSDS_OMM_VERS = 2.0
CREATION_DATE  = 
ORIGINATOR     = 

OBJECT_NAME    = STARLINK-36244
OBJECT_ID      = 2026-049D
CENTER_NAME    = EARTH
REF_FRAME      = TEME
TIME_SYSTEM    = UTC
MEAN_ELEMENT_THEORY = SGP/SGP4

EPOCH          = 2026-03-28T22:00:01.999584
MEAN_MOTION    = 15.75208398
ECCENTRICITY   = .00013901
INCLINATION    = 97.2847
RA_OF_ASC_NODE = 108.1032
ARG_OF_PERICENTER = 94.5254
MEAN_ANOMALY   = 298.0973

EPHEMERIS_TYPE = 0
CLASSIFICATION_TYPE = U
NORAD_CAT_ID   = 68145
ELEMENT_SET_NO = 999
REV_AT_EPOCH   = 372
BSTAR          = -.61582521E-3
MEAN_MOTION_DOT = -.91085E-3
MEAN_MOTION_DDOT = 0

CCSDS_OMM_VERS = 2.0
CREATION_DATE  = 
ORIGINATOR     = 

OBJECT_NAME    = STARLINK-36980
OBJECT_ID      = 2026-049E
CENTER_NAME    = EARTH
REF_FRAME      = TEME
TIME_SYSTEM    = UTC
MEAN_ELEMENT_THEORY = SGP/SGP4

EPOCH          = 2026-03-28T21:45:22.021632
MEAN_MOTION    = 15.80836291
ECCENTRICITY   = .00010659
INCLINATION    = 97.2845
RA_OF_ASC_NODE = 108.1040
ARG_OF_PERICENTER = 102.8580
MEAN_ANOMALY   = 257.2808

EPHEMERIS_TYPE = 0
CLASSIFICATION_TYPE = U
NORAD_CAT_ID   = 68146
ELEMENT_SET_NO = 999
REV_AT_EPOCH   = 244
BSTAR          = .44562791E-3
MEAN_MOTION_DOT = .86143E-3
MEAN_MOTION_DDOT = 0

CCSDS_OMM_VERS = 2.0
CREATION_DATE  = 
ORIGINATOR     = 

OBJECT_NAME    = STARLINK-37055
OBJECT_ID      = 2026-049F
CENTER_NAME    = EARTH
REF_FRAME      = TEME
TIME_SYSTEM    = UTC
MEAN_ELEMENT_THEORY = SGP/SGP4

EPOCH          = 2026-03-28T21:47:31.715808
MEAN_MOTION    = 15.80833937
ECCENTRICITY   = .00009385
INCLINATION    = 97.2845
RA_OF_ASC_NODE = 108.1013
ARG_OF_PERICENTER = 94.9179
MEAN_ANOMALY   = 265.2196

EPHEMERIS_TYPE = 0
CLASSIFICATION_TYPE = U
NORAD_CAT_ID   = 68147
ELEMENT_SET_NO = 999
REV_AT_EPOCH   = 244
BSTAR          = .36664653E-3
MEAN_MOTION_DOT = .70716E-3
MEAN_MOTION_DDOT = 0

CCSDS_OMM_VERS = 2.0
CREATION_DATE  = 
ORIGINATOR     = 

OBJECT_NAME    = STARLINK-36981
OBJECT_ID      = 2026-049G
CENTER_NAME    = EARTH
REF_FRAME      = TEME
TIME_SYSTEM    = UTC
MEAN_ELEMENT_THEORY = SGP/SGP4

EPOCH          = 2026-03-28T21:43:12.099360
MEAN_MOTION    = 15.80865372
ECCENTRICITY   = .00014563
INCLINATION    = 97.2845
RA_OF_ASC_NODE = 108.1056
ARG_OF_PERICENTER = 104.0048
MEAN_ANOMALY   = 256.1382

EPHEMERIS_TYPE = 0
CLASSIFICATION_TYPE = U
NORAD_CAT_ID   = 68148
ELEMENT_SET_NO = 999
REV_AT_EPOCH   = 244
BSTAR          = .70266305E-3
MEAN_MOTION_DOT = .136892E-2
MEAN_MOTION_DDOT = 0

CCSDS_OMM_VERS = 2.0
CREATION_DATE  = 
ORIGINATOR     = 

OBJECT_NAME    = STARLINK-36992
OBJECT_ID      = 2026-049H
CENTER_NAME    = EARTH
REF_FRAME      = TEME
TIME_SYSTEM    = UTC
MEAN_ELEMENT_THEORY = SGP/SGP4

EPOCH          = 2026-03-28T21:42:07.217280
MEAN_MOTION    = 15.80852398
ECCENTRICITY   = .00012459
INCLINATION    = 97.2846
RA_OF_ASC_NODE = 108.1067
ARG_OF_PERICENTER = 109.0952
MEAN_ANOMALY   = 251.0452

EPHEMERIS_TYPE = 0
CLASSIFICATION_TYPE = U
NORAD_CAT_ID   = 68149
ELEMENT_SET_NO = 999
REV_AT_EPOCH   = 244
BSTAR          = .72127426E-3
MEAN_MOTION_DOT = .140495E-2
MEAN_MOTION_DDOT = 0

CCSDS_OMM_VERS = 2.0
CREATION_DATE  = 
ORIGINATOR     = 

OBJECT_NAME    = STARLINK-37060
OBJECT_ID      = 2026-049J
CENTER_NAME    = EARTH
REF_FRAME      = TEME
TIME_SYSTEM    = UTC
MEAN_ELEMENT_THEORY = SGP/SGP4

EPOCH          = 2026-03-28T22:00:01.999584
MEAN_MOTION    = 15.80792461
ECCENTRICITY   = .00016278
INCLINATION    = 97.2846
RA_OF_ASC_NODE = 108.1221
ARG_OF_PERICENTER = 71.7383
MEAN_ANOMALY   = 3.4251

EPHEMERIS_TYPE = 0
CLASSIFICATION_TYPE = U
NORAD_CAT_ID   = 68150
ELEMENT_SET_NO = 999
REV_AT_EPOCH   = 371
BSTAR          = .20237667E-3
MEAN_MOTION_DOT = .38754E-3
MEAN_MOTION_DDOT = 0

CCSDS_OMM_VERS = 2.0
CREATION_DATE  = 
ORIGINATOR     = 

OBJECT_NAME    = STARLINK-37073
OBJECT_ID      = 2026-049K
CENTER_NAME    = EARTH
REF_FRAME      = TEME
TIME_SYSTEM    = UTC
MEAN_ELEMENT_THEORY = SGP/SGP4

EPOCH          = 2026-03-28T22:00:01.999584
MEAN_MOTION    = 15.80789311
ECCENTRICITY   = .00015112
INCLINATION    = 97.2846
RA_OF_ASC_NODE = 108.1241
ARG_OF_PERICENTER = 63.2952
MEAN_ANOMALY   = 16.1333

EPHEMERIS_TYPE = 0
CLASSIFICATION_TYPE = U
NORAD_CAT_ID   = 68151
ELEMENT_SET_NO = 999
REV_AT_EPOCH   = 371
BSTAR          = .29738436E-3
MEAN_MOTION_DOT = .57126E-3
MEAN_MOTION_DDOT = 0

CCSDS_OMM_VERS = 2.0
CREATION_DATE  = 
ORIGINATOR     = 

OBJECT_NAME    = STARLINK-37049
OBJECT_ID      = 2026-049L
CENTER_NAME    = EARTH
REF_FRAME      = TEME
TIME_SYSTEM    = UTC
MEAN_ELEMENT_THEORY = SGP/SGP4

EPOCH          = 2026-03-28T22:00:01.999584
MEAN_MOTION    = 15.80778526
ECCENTRICITY   = .00013794
INCLINATION    = 97.2847
RA_OF_ASC_NODE = 108.1262
ARG_OF_PERICENTER = 86.8092
MEAN_ANOMALY   = 356.8900

EPHEMERIS_TYPE = 0
CLASSIFICATION_TYPE = U
NORAD_CAT_ID   = 68152
ELEMENT_SET_NO = 999
REV_AT_EPOCH   = 371
BSTAR          = .50331359E-3
MEAN_MOTION_DOT = .9718E-3
MEAN_MOTION_DDOT = 0

CCSDS_OMM_VERS = 2.0
CREATION_DATE  = 
ORIGINATOR     = 

OBJECT_NAME    = STARLINK-37072
OBJECT_ID      = 2026-049M
CENTER_NAME    = EARTH
REF_FRAME      = TEME
TIME_SYSTEM    = UTC
MEAN_ELEMENT_THEORY = SGP/SGP4

EPOCH          = 2026-03-28T22:00:01.999584
MEAN_MOTION    = 15.80781106
ECCENTRICITY   = .00012342
INCLINATION    = 97.2846
RA_OF_ASC_NODE = 108.1283
ARG_OF_PERICENTER = 95.2789
MEAN_ANOMALY   = 352.7045

EPHEMERIS_TYPE = 0
CLASSIFICATION_TYPE = U
NORAD_CAT_ID   = 68153
ELEMENT_SET_NO = 999
REV_AT_EPOCH   = 371
BSTAR          = .46014482E-3
MEAN_MOTION_DOT = .88757E-3
MEAN_MOTION_DDOT = 0

CCSDS_OMM_VERS = 2.0
CREATION_DATE  = 
ORIGINATOR     = 

OBJECT_NAME    = STARLINK-36241
OBJECT_ID      = 2026-049N
CENTER_NAME    = EARTH
REF_FRAME      = TEME
TIME_SYSTEM    = UTC
MEAN_ELEMENT_THEORY = SGP/SGP4

EPOCH          = 2026-03-28T22:00:01.999584
MEAN_MOTION    = 15.75192238
ECCENTRICITY   = .00012946
INCLINATION    = 97.2848
RA_OF_ASC_NODE = 108.1128
ARG_OF_PERICENTER = 100.3136
MEAN_ANOMALY   = 314.3039

EPHEMERIS_TYPE = 0
CLASSIFICATION_TYPE = U
NORAD_CAT_ID   = 68154
ELEMENT_SET_NO = 999
REV_AT_EPOCH   = 372
BSTAR          = -.36175595E-3
MEAN_MOTION_DOT = -.53755E-3
MEAN_MOTION_DDOT = 0

CCSDS_OMM_VERS = 2.0
CREATION_DATE  = 
ORIGINATOR     = 

OBJECT_NAME    = STARLINK-37048
OBJECT_ID      = 2026-049P
CENTER_NAME    = EARTH
REF_FRAME      = TEME
TIME_SYSTEM    = UTC
MEAN_ELEMENT_THEORY = SGP/SGP4

EPOCH          = 2026-03-28T22:00:01.999584
MEAN_MOTION    = 15.80766607
ECCENTRICITY   = .00012555
INCLINATION    = 97.2846
RA_OF_ASC_NODE = 108.1353
ARG_OF_PERICENTER = 73.5460
MEAN_ANOMALY   = 31.5389

EPHEMERIS_TYPE = 0
CLASSIFICATION_TYPE = U
NORAD_CAT_ID   = 68155
ELEMENT_SET_NO = 999
REV_AT_EPOCH   = 371
BSTAR          = .56936139E-3
MEAN_MOTION_DOT = .110054E-2
MEAN_MOTION_DDOT = 0

